[{"OBJECT_NAME":"STARLINK-34014","OBJECT_ID":"2025-098S","EPOCH":"2026-03-09T23:02:15.944064","MEAN_MOTION":14.98326269,"ECCENTRICITY":0.00019954,"INCLINATION":70.0002,"RA_OF_ASC_NODE":273.7444,"ARG_OF_PERICENTER":268.5137,"MEAN_ANOMALY":91.5793,"EPHEMERIS_TYPE":0,"CLASSIFICATION_TYPE":"U","NORAD_CAT_ID":63942,"ELEMENT_SET_NO":999,"REV_AT_EPOCH":4658,"BSTAR":0.00088222016,"MEAN_MOTION_DOT":0.00010448,"MEAN_MOTION_DDOT":0},{"OBJECT_NAME":"SAUDISAT 1A (SO-41)","OBJECT_ID":"2000-057A","EPOCH":"2026-03-09T22:39:31.129056","MEAN_MOTION":14.92876682,"ECCENTRICITY":0.00361512,"INCLINATION":64.5511,"RA_OF_ASC_NODE":249.3562,"ARG_OF_PERICENTER":314.8741,"MEAN_ANOMALY":44.9435,"EPHEMERIS_TYPE":0,"CLASSIFICATION_TYPE":"U","NORAD_CAT_ID":26545,"ELEMENT_SET_NO":999,"REV_AT_EPOCH":37821,"BSTAR":0.0002077791,"MEAN_MOTION_DOT":2.024e-5,"MEAN_MOTION_DDOT":0}]
